{"type": "FeatureCollection", "features": [ {"type": "Feature", "properties": {"norad_id": 66998, "name": "2025-292F", "group": "last-30-days", "lat": -35.59007937414519, "lon": -120.12799586361568, "alt_km": 550.3703667952841, "timestamp": "2025-12-18T21:31:49.701807+00:00", "meta": {"OBJECT_NAME": "2025-292F", "OBJECT_ID": "2025-292F", "EPOCH": "2025-12-18T06:12:38.702592", "MEAN_MOTION": 15.04883543, "ECCENTRICITY": 0.00145379, "INCLINATION": 97.6567, "RA_OF_ASC_NODE": 64.7641, "ARG_OF_PERICENTER": 257.1886, "MEAN_ANOMALY": 102.7716, "EPHEMERIS_TYPE": 0, "CLASSIFICATION_TYPE": "U", "NORAD_CAT_ID": 66998, "ELEMENT_SET_NO": 999, "REV_AT_EPOCH": 122, "BSTAR": 0.00033031096, "MEAN_MOTION_DOT": 4.621e-05, "MEAN_MOTION_DDOT": 0}, "tle": {"line1": "1 66998U 25292F   25352.25878128  .00004621  00000+0  33031-3 0  9991", "line2": "2 66998  97.6567  64.7641 0014537 257.1886 102.7716 15.04883543  1225"}}, "geometry": {"type": "Point", "coordinates": [-120.12799586361568, -35.59007937414519]}}, {"type": "Feature", "properties": {"norad_id": 66999, "name": "2025-292G", "group": "last-30-days", "lat": -37.54990659703743, "lon": -120.53777411412123, "alt_km": 550.550928895499, "timestamp": "2025-12-18T21:31:49.701817+00:00", "meta": {"OBJECT_NAME": "2025-292G", "OBJECT_ID": "2025-292G", "EPOCH": "2025-12-18T06:12:09.400896", "MEAN_MOTION": 15.04947286, "ECCENTRICITY": 0.00140565, "INCLINATION": 97.6575, "RA_OF_ASC_NODE": 64.7654, "ARG_OF_PERICENTER": 259.3232, "MEAN_ANOMALY": 100.6412, "EPHEMERIS_TYPE": 0, "CLASSIFICATION_TYPE": "U", "NORAD_CAT_ID": 66999, "ELEMENT_SET_NO": 999, "REV_AT_EPOCH": 122, "BSTAR": 0.00032992262, "MEAN_MOTION_DOT": 4.623e-05, "MEAN_MOTION_DDOT": 0}, "tle": {"line1": "1 66999U 25292G   25352.25844214  .00004623  00000+0  32992-3 0  9998", "line2": "2 66999  97.6575  64.7654 0014056 259.3232 100.6412 15.04947286  1229"}}, "geometry": {"type": "Point", "coordinates": [-120.53777411412123, -37.54990659703743]}}, {"type": "Feature", "properties": {"norad_id": 67000, "name": "2025-292H", "group": "last-30-days", "lat": -37.548990798400496, "lon": -120.5375953787028, "alt_km": 550.5866563797481, "timestamp": "2025-12-18T21:31:49.701827+00:00", "meta": {"OBJECT_NAME": "2025-292H", "OBJECT_ID": "2025-292H", "EPOCH": "2025-12-17T15:50:27.314304", "MEAN_MOTION": 15.04941506, "ECCENTRICITY": 0.00140318, "INCLINATION": 97.6577, "RA_OF_ASC_NODE": 64.1722, "ARG_OF_PERICENTER": 261.5567, "MEAN_ANOMALY": 98.4069, "EPHEMERIS_TYPE": 0, "CLASSIFICATION_TYPE": "U", "NORAD_CAT_ID": 67000, "ELEMENT_SET_NO": 999, "REV_AT_EPOCH": 100, "BSTAR": 0.00033244641, "MEAN_MOTION_DOT": 4.658e-05, "MEAN_MOTION_DDOT": 0}, "tle": {"line1": "1 67000U 25292H   25351.66003836  .00004658  00000+0  33245-3 0  9993", "line2": "2 67000  97.6577  64.1722 0014031 261.5567  98.4069 15.04941506  1001"}}, "geometry": {"type": "Point", "coordinates": [-120.5375953787028, -37.548990798400496]}}, {"type": "Feature", "properties": {"norad_id": 67001, "name": "2025-292J", "group": "last-30-days", "lat": -19.422263734516644, "lon": -117.32889295336216, "alt_km": 551.8082786213936, "timestamp": "2025-12-18T21:31:49.701837+00:00", "meta": {"OBJECT_NAME": "2025-292J", "OBJECT_ID": "2025-292J", "EPOCH": "2025-12-18T06:16:40.918080", "MEAN_MOTION": 15.04362461, "ECCENTRICITY": 0.00142515, "INCLINATION": 97.6567, "RA_OF_ASC_NODE": 64.7604, "ARG_OF_PERICENTER": 247.923, "MEAN_ANOMALY": 112.0483, "EPHEMERIS_TYPE": 0, "CLASSIFICATION_TYPE": "U", "NORAD_CAT_ID": 67001, "ELEMENT_SET_NO": 999, "REV_AT_EPOCH": 122, "BSTAR": 0.00035051848, "MEAN_MOTION_DOT": 4.839e-05, "MEAN_MOTION_DDOT": 0}, "tle": {"line1": "1 67001U 25292J   25352.26158470  .00004839  00000+0  35052-3 0  9995", "line2": "2 67001  97.6567  64.7604 0014251 247.9230 112.0483 15.04362461  1229"}}, "geometry": {"type": "Point", "coordinates": [-117.32889295336216, -19.422263734516644]}}, {"type": "Feature", "properties": {"norad_id": 67002, "name": "ZK-1A R/B", "group": "last-30-days", "lat": -9.529445695862783, "lon": 67.48197037260427, "alt_km": 258.57478418482515, "timestamp": "2025-12-18T21:31:49.701871+00:00", "meta": {"OBJECT_NAME": "ZK-1A R/B", "OBJECT_ID": "2025-292K", "EPOCH": "2025-12-18T04:35:51.387936", "MEAN_MOTION": 15.56337794, "ECCENTRICITY": 0.0213767, "INCLINATION": 97.7234, "RA_OF_ASC_NODE": 65.4127, "ARG_OF_PERICENTER": 345.9205, "MEAN_ANOMALY": 13.6145, "EPHEMERIS_TYPE": 0, "CLASSIFICATION_TYPE": "U", "NORAD_CAT_ID": 67002, "ELEMENT_SET_NO": 999, "REV_AT_EPOCH": 124, "BSTAR": 0.00073146183, "MEAN_MOTION_DOT": 0.00151802, "MEAN_MOTION_DDOT": 8.225292e-06}, "tle": {"line1": "1 67002U 25292K   25352.19156699  .00151802  82253-5  73146-3 0  9994", "line2": "2 67002  97.7234  65.4127 0213767 345.9205  13.6145 15.56337794  1245"}}, "geometry": {"type": "Point", "coordinates": [67.48197037260427, -9.529445695862783]}}, {"type": "Feature", "properties": {"norad_id": 67003, "name": "STARLINK-35660", "group": "last-30-days", "lat": 6.121107530184803, "lon": -51.82854144064082, "alt_km": 290.441843408983, "timestamp": "2025-12-18T21:31:49.701883+00:00", "meta": {"OBJECT_NAME": "STARLINK-35660", "OBJECT_ID": "2025-293A", "EPOCH": "2025-12-17T20:00:01.999872", "MEAN_MOTION": 15.96949357, "ECCENTRICITY": 0.00041285, "INCLINATION": 69.9938, "RA_OF_ASC_NODE": 309.0388, "ARG_OF_PERICENTER": 267.0417, "MEAN_ANOMALY": 109.6865, "EPHEMERIS_TYPE": 0, "CLASSIFICATION_TYPE": "U", "NORAD_CAT_ID": 67003, "ELEMENT_SET_NO": 999, "REV_AT_EPOCH": 238, "BSTAR": -0.0021949135, "MEAN_MOTION_DOT": -0.00948175, "MEAN_MOTION_DDOT": 0.00028832242}, "tle": {"line1": "1 67003U 25293A   25351.83335648 -.00948175  28832-3 -21949-2 0  9992", "line2": "2 67003  69.9938 309.0388 0004128 267.0417 109.6865 15.96949357  2381"}}, "geometry": {"type": "Point", "coordinates": [-51.82854144064082, 6.121107530184803]}}, {"type": "Feature", "properties": {"norad_id": 67004, "name": "STARLINK-35913", "group": "last-30-days", "lat": 7.877476450435984, "lon": -51.18057374631815, "alt_km": 290.12870831990585, "timestamp": "2025-12-18T21:31:49.701896+00:00", "meta": {"OBJECT_NAME": "STARLINK-35913", "OBJECT_ID": "2025-293B", "EPOCH": "2025-12-17T20:00:01.999872", "MEAN_MOTION": 15.97007544, "ECCENTRICITY": 0.0004053, "INCLINATION": 69.9938, "RA_OF_ASC_NODE": 309.0368, "ARG_OF_PERICENTER": 264.5457, "MEAN_ANOMALY": 113.7697, "EPHEMERIS_TYPE": 0, "CLASSIFICATION_TYPE": "U", "NORAD_CAT_ID": 67004, "ELEMENT_SET_NO": 999, "REV_AT_EPOCH": 238, "BSTAR": -0.0021504018, "MEAN_MOTION_DOT": -0.00932001, "MEAN_MOTION_DDOT": 0.00027947769}, "tle": {"line1": "1 67004U 25293B   25351.83335648 -.00932001  27948-3 -21504-2 0  9998", "line2": "2 67004  69.9938 309.0368 0004053 264.5457 113.7697 15.97007544  2386"}}, "geometry": {"type": "Point", "coordinates": [-51.18057374631815, 7.877476450435984]}}, {"type": "Feature", "properties": {"norad_id": 67005, "name": "STARLINK-36148", "group": "last-30-days", "lat": 9.693055985263587, "lon": -50.504097960074695, "alt_km": 289.7150307032043, "timestamp": "2025-12-18T21:31:49.701908+00:00", "meta": {"OBJECT_NAME": "STARLINK-36148", "OBJECT_ID": "2025-293C", "EPOCH": "2025-12-17T20:00:01.999872", "MEAN_MOTION": 15.97088495, "ECCENTRICITY": 0.00041461, "INCLINATION": 69.9939, "RA_OF_ASC_NODE": 309.0351, "ARG_OF_PERICENTER": 266.6812, "MEAN_ANOMALY": 113.3161, "EPHEMERIS_TYPE": 0, "CLASSIFICATION_TYPE": "U", "NORAD_CAT_ID": 67005, "ELEMENT_SET_NO": 999, "REV_AT_EPOCH": 238, "BSTAR": -0.0021761225, "MEAN_MOTION_DOT": -0.0094726, "MEAN_MOTION_DDOT": 0.00028823862}, "tle": {"line1": "1 67005U 25293C   25351.83335648 -.00947260  28824-3 -21761-2 0  9991", "line2": "2 67005  69.9939 309.0351 0004146 266.6812 113.3161 15.97088495  2387"}}, "geometry": {"type": "Point", "coordinates": [-50.504097960074695, 9.693055985263587]}}, {"type": "Feature", "properties": {"norad_id": 67006, "name": "STARLINK-36156", "group": "last-30-days", "lat": 14.045409309126008, "lon": -48.848312743486055, "alt_km": 288.809973020444, "timestamp": "2025-12-18T21:31:49.701920+00:00", "meta": {"OBJECT_NAME": "STARLINK-36156", "OBJECT_ID": "2025-293D", "EPOCH": "2025-12-17T20:00:01.999872", "MEAN_MOTION": 15.97269332, "ECCENTRICITY": 0.00041045, "INCLINATION": 69.9938, "RA_OF_ASC_NODE": 309.0299, "ARG_OF_PERICENTER": 266.4594, "MEAN_ANOMALY": 117.5341, "EPHEMERIS_TYPE": 0, "CLASSIFICATION_TYPE": "U", "NORAD_CAT_ID": 67006, "ELEMENT_SET_NO": 999, "REV_AT_EPOCH": 238, "BSTAR": -0.0021807905, "MEAN_MOTION_DOT": -0.00958648, "MEAN_MOTION_DDOT": 0.00029524434}, "tle": {"line1": "1 67006U 25293D   25351.83335648 -.00958648  29524-3 -21808-2 0  9994", "line2": "2 67006  69.9938 309.0299 0004104 266.4594 117.5341 15.97269332  2384"}}, "geometry": {"type": "Point", "coordinates": [-48.848312743486055, 14.045409309126008]}}, {"type": "Feature", "properties": {"norad_id": 67007, "name": "STARLINK-36123", "group": "last-30-days", "lat": 12.076123766840837, "lon": -49.6048033480594, "alt_km": 289.28038704732535, "timestamp": "2025-12-18T21:31:49.701930+00:00", "meta": {"OBJECT_NAME": "STARLINK-36123", "OBJECT_ID": "2025-293E", "EPOCH": "2025-12-17T20:00:01.999872", "MEAN_MOTION": 15.97188271, "ECCENTRICITY": 0.00041101, "INCLINATION": 69.9936, "RA_OF_ASC_NODE": 309.032, "ARG_OF_PERICENTER": 265.4955, "MEAN_ANOMALY": 116.6939, "EPHEMERIS_TYPE": 0, "CLASSIFICATION_TYPE": "U", "NORAD_CAT_ID": 67007, "ELEMENT_SET_NO": 999, "REV_AT_EPOCH": 238, "BSTAR": -0.0021833236, "MEAN_MOTION_DOT": -0.00955528, "MEAN_MOTION_DDOT": 0.00029321675}, "tle": {"line1": "1 67007U 25293E   25351.83335648 -.00955528  29322-3 -21833-2 0  9993", "line2": "2 67007  69.9936 309.0320 0004110 265.4955 116.6939 15.97188271  2380"}}, "geometry": {"type": "Point", "coordinates": [-49.6048033480594, 12.076123766840837]}}]}